[{"OBJECT_NAME":"ONEWEB-0038","OBJECT_ID":"2020-008Q","EPOCH":"2026-03-09T21:45:46.186848","MEAN_MOTION":13.11417745,"ECCENTRICITY":0.0002225,"INCLINATION":87.8873,"RA_OF_ASC_NODE":40.8038,"ARG_OF_PERICENTER":130.7833,"MEAN_ANOMALY":229.3488,"EPHEMERIS_TYPE":0,"CLASSIFICATION_TYPE":"U","NORAD_CAT_ID":45145,"ELEMENT_SET_NO":999,"REV_AT_EPOCH":29731,"BSTAR":0.0015539357,"MEAN_MOTION_DOT":5.63e-6,"MEAN_MOTION_DDOT":0},{"OBJECT_NAME":"VANGUARD DEB","OBJECT_ID":"1958-002C","EPOCH":"2026-03-09T10:31:12.588960","MEAN_MOTION":11.82486798,"ECCENTRICITY":0.13810811,"INCLINATION":34.2234,"RA_OF_ASC_NODE":114.5024,"ARG_OF_PERICENTER":205.9479,"MEAN_ANOMALY":146.5011,"EPHEMERIS_TYPE":0,"CLASSIFICATION_TYPE":"U","NORAD_CAT_ID":1576,"ELEMENT_SET_NO":999,"REV_AT_EPOCH":79029,"BSTAR":0.0020471886,"MEAN_MOTION_DOT":2.223e-5,"MEAN_MOTION_DDOT":0}]
